eedfe24e-6fa6-4466-ac16-f6086d1a0333
1 25338U 98030A   17288.49529043  .00000057  00000-0  23836-4 0  9991
2 25338  98.7843 299.6383 0010164 216.8147 143.2938 14.25820166 10144
556e58f9-a6c9-4da2-96a9-9d45f55c34ad
1 33591U 09005A   17288.43141343  .00000063  00000-0  34290-4 0  9995
2 33591  99.1077 257.0461 0013872 296.1360  63.8880 14.12217483447628
